[{"OBJECT_NAME":"TOMORROW-S2","OBJECT_ID":"2024-149T","EPOCH":"2026-03-09T18:02:42.746496","MEAN_MOTION":15.30674935,"ECCENTRICITY":0.0001648,"INCLINATION":97.3857,"RA_OF_ASC_NODE":150.0385,"ARG_OF_PERICENTER":234.3331,"MEAN_ANOMALY":125.7757,"EPHEMERIS_TYPE":0,"CLASSIFICATION_TYPE":"U","NORAD_CAT_ID":60485,"ELEMENT_SET_NO":999,"REV_AT_EPOCH":8686,"BSTAR":0.00027683033,"MEAN_MOTION_DOT":8.133e-5,"MEAN_MOTION_DDOT":0},{"OBJECT_NAME":"STARLINK-35851","OBJECT_ID":"2025-254J","EPOCH":"2026-03-09T21:21:22.380768","MEAN_MOTION":15.3019816,"ECCENTRICITY":9.41e-5,"INCLINATION":53.157,"RA_OF_ASC_NODE":231.715,"ARG_OF_PERICENTER":108.6676,"MEAN_ANOMALY":251.4427,"EPHEMERIS_TYPE":0,"CLASSIFICATION_TYPE":"U","NORAD_CAT_ID":66356,"ELEMENT_SET_NO":999,"REV_AT_EPOCH":1900,"BSTAR":0.0009115398,"MEAN_MOTION_DOT":0.00026734,"MEAN_MOTION_DDOT":0}]
